0 METEOR 2-7 DEB
1 38288U 81043W   13281.29530850  .00002515  00000-0  13085-2 0   995
2 38288 081.2646 279.1310 0049608 304.0065 055.6597 14.13780149141412
0 METEOR 2-7 DEB
1 38288U 81043W   13284.40924574  .00002671  00000-0  13913-2 0  1007
2 38288 081.2665 276.0943 0046558 294.9428 064.7366 14.13799052141858
0 METEOR 2-7 DEB
1 38288U 81043W   13287.24005394  .00002817  00000-0  14660-2 0  1015
2 38288 081.2633 273.3265 0048087 289.3702 070.2493 14.13817451142254
0 METEOR 2-7 DEB
1 38288U 81043W   13289.29237123  .00002942  00000-0  15309-2 0  1020
2 38288 081.2682 271.3220 0048263 280.6112 079.0260 14.13831695142549
0 METEOR 2-7 DEB
1 38288U 81043W   13293.25541065  .00003410  00000-0  17749-2 0  1036
2 38288 081.2754 267.4538 0047720 266.2160 093.5520 14.13865185143101
0 METEOR 2-7 DEB
1 38288U 81043W   13295.23686028  .00003479  00000-0  18105-2 0  1048
2 38288 081.2767 265.5209 0047560 260.0420 099.5744 14.13880367143385
